H1 CPF 01  gfz 2022 07 26 00  7071 terrasarx 
H2 0702601  6201 31698    2022 07 26 00 59 42 2022 07 31 00 00 42   120 1 1  0 0 0
H9
10 0 59787  49662.000000  0   -2738537.403  -6032121.945   1882868.026
10 0 59787  49782.000000  0   -2982325.603  -6128382.282    998774.641
10 0 59787  49902.000000  0   -3174692.918  -6113695.025     97095.158
10 0 59787  50022.000000  0   -3310366.547  -5989302.216   -806295.448
10 0 59787  50142.000000  0   -3385116.693  -5758465.402  -1695506.195
10 0 59787  50262.000000  0   -3395864.069  -5426383.833  -2554918.218
10 0 59787  50382.000000  0   -3340763.600  -5000074.116  -3369465.986
10 0 59787  50502.000000  0   -3219261.702  -4488214.597  -4124905.016
10 0 59787  50622.000000  0   -3032126.500  -3900960.159  -4808059.948
10 0 59787  50742.000000  0   -2781451.524  -3249732.856  -5407049.681
10 0 59787  50862.000000  0   -2470633.412  -2546993.005  -5911486.190
10 0 59787  50982.000000  0   -2104324.122  -1805996.463  -6312644.927
10 0 59787  51102.000000  0   -1688358.118  -1040542.562  -6603604.992
10 0 59787  51222.000000  0   -1229657.417   -264717.989  -6779356.567
10 0 59787  51342.000000  0    -736117.090    507358.130  -6836876.810
10 0 59787  51462.000000  0    -216471.463   1261784.546  -6775176.250
10 0 59787  51582.000000  0     319856.519   1985121.592  -6595313.558
10 0 59787  51702.000000  0     862920.803   2664624.729  -6300381.248
10 0 59787  51822.000000  0    1402433.360   3288466.341  -5895459.157
10 0 59787  51942.000000  0    1927954.666   3845940.783  -5387535.026
10 0 59787  52062.000000  0    2429092.486   4327649.574  -4785395.101
10 0 59787  52182.000000  0    2895705.735   4725665.210  -4099483.752
10 0 59787  52302.000000  0    3318109.144   5033669.447  -3341731.976
10 0 59787  52422.000000  0    3687275.216   5247062.361  -2525357.801
10 0 59787  52542.000000  0    3995029.034   5363039.144  -1664639.413
10 0 59787  52662.000000  0    4234229.733   5380632.190   -774665.990
10 0 59787  52782.000000  0    4398934.711   5300717.556    128930.497
10 0 59787  52902.000000  0    4484542.056   5125983.005   1030256.552
10 0 59787  53022.000000  0    4487905.640   4860859.027   1913444.037
10 0 59787  53142.000000  0    4407423.045   4511417.391   2762937.138
10 0 59787  53262.000000  0    4243091.859   4085234.847   3563776.791
10 0 59787  53382.000000  0    3996530.920   3591227.018   4301870.256
10 0 59787  53502.000000  0    3670970.289   3039457.994   4964241.569
10 0 59787  53622.000000  0    3271208.812   2440931.262   5539262.559
10 0 59787  53742.000000  0    2803537.067   1807364.162   6016853.697
10 0 59787  53862.000000  0    2275634.477   1150955.009   6388655.063
10 0 59787  53982.000000  0    1696439.256    484145.241   6648166.417
10 0 59787  54102.000000  0    1075994.025   -180615.984   6790854.487
10 0 59787  54222.000000  0     425270.094   -831103.307   6814228.825
10 0 59787  54342.000000  0    -244027.180  -1455540.460   6717882.493
10 0 59787  54462.000000  0    -919669.031  -2042813.116   6503498.158
10 0 59787  54582.000000  0   -1589126.057  -2582666.749   6174819.069
10 0 59787  54702.000000  0   -2239797.981  -3065885.495   5737587.403
10 0 59787  54822.000000  0   -2859250.328  -3484452.135   5199452.111
10 0 59787  54942.000000  0   -3435455.984  -3831685.958   4569842.105
10 0 59787  55062.000000  0   -3957033.247  -4102353.419   3859804.794
10 0 59787  55182.000000  0   -4413474.428  -4292750.533   3081815.020
10 0 59787  55302.000000  0   -4795361.716  -4400755.614   2249557.483
10 0 59787  55422.000000  0   -5094566.335  -4425851.020   1377684.053
10 0 59787  55542.000000  0   -5304424.134  -4369111.234    481550.324
10 0 59787  55662.000000  0   -5419883.576  -4233158.373   -423062.085
10 0 59787  55782.000000  0   -5437622.186  -4022086.157  -1320232.428
10 0 59787  55902.000000  0   -5356127.702  -3741353.431  -2194191.088
10 0 59787  56022.000000  0   -5175740.987  -3397649.873  -3029604.384
10 0 59787  56142.000000  0   -4898661.735  -2998739.572  -3811847.672
10 0 59787  56262.000000  0   -4528917.872  -2553286.061  -4527262.096
10 0 59787  56382.000000  0   -4072299.196  -2070663.404  -5163390.555
10 0 59787  56502.000000  0   -3536257.629  -1560758.204  -5709188.358
10 0 59787  56622.000000  0   -2929777.401  -1033766.689  -6155205.821
10 0 59787  56742.000000  0   -2263218.277   -499991.701  -6493740.897
10 0 59787  56862.000000  0   -1548134.422     30356.150  -6718960.633
10 0 59787  56982.000000  0    -797073.754    547349.248  -6826989.846
10 0 59787  57102.000000  0     -23361.825   1041523.633  -6815970.478
10 0 59787  57222.000000  0     759128.606   1504047.616  -6686089.655
10 0 59787  57342.000000  0    1536219.732   1926875.307  -6439579.293
10 0 59787  57462.000000  0    2293680.745   2302884.999  -6080682.102
10 0 59787  57582.000000  0    3017484.285   2625998.517  -5615586.216
10 0 59787  57702.000000  0    3694062.927   2891279.836  -5052327.819
10 0 59787  57822.000000  0    4310563.733   3095012.661  -4400664.938
10 0 59787  57942.000000  0    4855096.752   3234754.945  -3671919.068
10 0 59787  58062.000000  0    5316970.368   3309367.806  -2878786.454
10 0 59787  58182.000000  0    5686908.446   3319019.607  -2035123.314
10 0 59787  58302.000000  0    5957245.834   3265163.682  -1155705.470
10 0 59787  58422.000000  0    6122094.348   3150488.540   -255967.555
10 0 59787  58542.000000  0    6177476.080   2978842.572    648272.890
10 0 59787  58662.000000  0    6121419.479   2755133.463   1541100.837
10 0 59787  58782.000000  0    5954015.043   2485207.635   2406792.004
10 0 59787  58902.000000  0    5677430.233   2175710.513   3230099.018
10 0 59787  59022.000000  0    5295880.994   1833930.794   3996527.954
10 0 59787  59142.000000  0    4815561.668   1467634.043   4692598.752
10 0 59787  59262.000000  0    4244536.401   1084889.478   5306082.693
10 0 59787  59382.000000  0    3592596.355    693894.392   5826217.471
10 0 59787  59502.000000  0    2871081.165    302799.868   6243892.582
10 0 59787  59622.000000  0    2092674.683    -80456.673   6551801.295
10 0 59787  59742.000000  0    1271178.518   -448310.284   6744562.888
10 0 59787  59862.000000  0     421264.305   -793716.629   6818812.637
10 0 59787  59982.000000  0    -441790.064  -1110285.939   6773255.951
10 0 59787  60102.000000  0   -1302374.581  -1392400.849   6608688.820
10 0 59787  60222.000000  0   -2144828.256  -1635316.151   6327983.537
10 0 59787  60342.000000  0   -2953721.801  -1835237.855   5936041.542
10 0 59787  60462.000000  0   -3714141.014  -1989382.710   5439716.140
10 0 59787  60582.000000  0   -4411967.113  -2096017.443   4847698.901
10 0 59787  60702.000000  0   -5034144.850  -2154475.364   4170372.176
10 0 59787  60822.000000  0   -5568933.858  -2165149.406   3419630.156
10 0 59787  60942.000000  0   -6006137.890  -2129462.041   2608672.361
10 0 59787  61062.000000  0   -6337308.394  -2049814.042   1751772.284
10 0 59787  61182.000000  0   -6555917.730  -1929512.284    864021.733
10 0 59787  61302.000000  0   -6657492.718  -1772676.930    -38942.696
10 0 59787  61422.000000  0   -6639708.467  -1584131.040   -941223.370
10 0 59787  61542.000000  0   -6502438.080  -1369275.573  -1826951.083
10 0 59787  61662.000000  0   -6247757.618  -1133953.526  -2680572.098
10 0 59787  61782.000000  0   -5879907.202   -884306.987  -3487126.965
10 0 59787  61902.000000  0   -5405209.751   -626629.795  -4232515.645
10 0 59787  62022.000000  0   -4831950.016   -367219.564  -4903743.246
10 0 59787  62142.000000  0   -4170217.356   -112233.494  -5489141.921
10 0 59787  62262.000000  0   -3431716.447    132448.746  -5978565.796
10 0 59787  62382.000000  0   -2629551.336    361352.609  -6363555.180
10 0 59787  62502.000000  0   -1777989.055    569523.647  -6637470.636
10 0 59787  62622.000000  0    -892205.209    752627.956  -6795596.958
10 0 59787  62742.000000  0      11983.216    907037.980  -6835214.670
10 0 59787  62862.000000  0     918392.871   1029901.052  -6755640.879
10 0 59787  62982.000000  0    1810756.345   1119190.117  -6558242.546
10 0 59787  63102.000000  0    2673008.691   1173737.144  -6246415.976
10 0 59787  63222.000000  0    3489571.979   1193247.580  -5825534.064
10 0 59787  63342.000000  0    4245633.112   1178295.525  -5302862.146
10 0 59787  63462.000000  0    4927413.071   1130300.067  -4687444.690
10 0 59787  63582.000000  0    5522423.367   1051483.292  -3989959.919
10 0 59787  63702.000000  0    6019702.643    944809.987  -3222543.949
10 0 59787  63822.000000  0    6410029.036    813910.016  -2398587.385
10 0 59787  63942.000000  0    6686104.262    662985.353  -1532505.922
10 0 59787  64062.000000  0    6842702.787    496702.921   -639487.187
10 0 59787  64182.000000  0    6876780.450    320075.942    264779.650
10 0 59787  64302.000000  0    6787541.241    138337.635   1164385.411
10 0 59787  64422.000000  0    6576459.972    -43191.485   2043489.185
10 0 59787  64542.000000  0    6247258.253   -219237.784   2886607.041
10 0 59787  64662.000000  0    5805834.257   -384707.515   3678893.043
10 0 59787  64782.000000  0    5260149.061   -534814.200   4406405.776
10 0 59787  64902.000000  0    4620075.213   -665197.763   5056357.192
10 0 59787  65022.000000  0    3897206.832   -772033.384   5617338.174
10 0 59787  65142.000000  0    3104639.351   -852125.331   6079515.096
10 0 59787  65262.000000  0    2256724.520   -902985.879   6434797.365
10 0 59787  65382.000000  0    1368805.445   -922897.259   6676973.354
10 0 59787  65502.000000  0     456934.740   -910955.707   6801814.199
10 0 59787  65622.000000  0    -462417.698   -867096.133   6807141.904
10 0 59787  65742.000000  0   -1372661.411   -792097.960   6692863.795
10 0 59787  65862.000000  0   -2257383.270   -687571.320   6460973.641
10 0 59787  65982.000000  0   -3100641.794   -555923.897   6115519.254
10 0 59787  66102.000000  0   -3887255.076   -400308.960   5662537.677
99
